type,entity_name,location_id,project_id,address_primary,city,state,zip_code,latitude,longitude,technology,upload_speed_anticipated,download_speed_anticipated
P,AIDA BRENTS,1371539887,CM61-BEAD-NV-CLA-0967-0,2120 VEGAS DR,LAS VEGAS,NV,89106,36.189027,-115.171029,71,2000,2000
P,ALLEGIANCE APTS,1370872955,CM61-BEAD-NV-CLA-0967-0,3757 PECOS MCLEOD,LAS VEGAS,NV,89121,36.121028,-115.104984,71,2000,2000
P,APACHE PINES,1371031033,CM61-BEAD-NV-CLA-0970-1,9552 W TROPICANA AVE BLDG 2,LAS VEGAS,NV,89147,36.102321,-115.300432,40,2000,2000
P,ARCHIE GRANT,1370928956,CM61-BEAD-NV-CLA-0967-0,1720 SEARLES AVE,LAS VEGAS,NV,89101,36.183916,-115.125882,71,2000,2000
P,ARTHUR MCCANTS MANOR,1371416002,CM61-BEAD-NV-CLA-0967-0,800 N EASTERN AVE,LAS VEGAS,NV,89101,36.178161,-115.114996,71,2000,2000
P,BASSLER/MCCARRAN/STATZ,1371067842,CM61-BEAD-NV-CLA-0967-0,2411 BASSLER ST,N LAS VEGAS,NV,89030,36.203717,-115.111689,71,2000,2000
F,Beatty Volunteer Fire Station,1316421884,CM61-BEAD-NV-NYE-0620-0,300 W WARD ST,BEATTY,NV,89003,36.909151,-116.763077,50,1000,1000
P,BELMONT APTS.,1316450189,CM61-BEAD-NV-NYE-0860-1,1042 S MAIN ST,TONOPAH,NV,89049,38.060931,-117.218269,50,1000,1000
F,Beowawe Volunteer Fire Department,1080051965,CM61-BEAD-NV-EUR-0174-1,8 NV-306,CRESCENT VALLEY,NV,89821,40.591037,-116.477374,50,1000,1000
F,Bill Sullivan Justice Center,1316421598,CM61-BEAD-NV-NYE-0620-0,426 C AVE S,BEATTY,NV,89003,36.900975,-116.766608,50,1000,1000
P,BLANCHARD ARMS APTS,1371393499,CM61-BEAD-NV-CLA-0967-0,321 N 9TH ST,LAS VEGAS,NV,89101,36.170497,-115.134526,71,2000,2000
F,Bldg 2069 Fire Station,1371033614,CM61-BEAD-NV-CLA-0967-0,4100 E CHEYENNE AVE,LAS VEGAS,NV,89115,36.235211,-115.026964,71,2000,2000
P,BLEDSOE SUPPORTIVE HOUSING,1370891140,CM61-BEAD-NV-CLA-0967-0,2306 BLEDSOE LN,LAS VEGAS,NV,89156,36.201856,-115.054797,71,2000,2000
F,Blue Diamond Volunteer Fire Department,1371591341,CM61-BEAD-NV-CLA-0969-1,75 COTTONWOOD DR,LAS VEGAS,NV,89141,36.048146,-115.408033,71,2000,2000
P,BOB HOGAN SUPPORTIVE HOUSING,1371442296,CM61-BEAD-NV-CLA-0967-0,5075 NEWPORT COVE DR,LAS VEGAS,NV,89119,36.097462,-115.12642,71,2000,2000
P,BONANZA PINES III,1371248601,CM61-BEAD-NV-CLA-0967-0,4172 E BONANZA RD,LAS VEGAS,NV,89110,36.173979,-115.085116,71,2000,2000
P,BONANZA PINES SR APT,1371248608,CM61-BEAD-NV-CLA-0967-0,4170 E BONANZA RD,LAS VEGAS,NV,89110,36.174632,-115.085537,71,2000,2000
P,BONANZA VIEW APTS.,1371357643,CM61-BEAD-NV-CLA-0967-0,640 MCKNIGHT ST,LAS VEGAS,NV,89101,36.174916,-115.111842,71,2000,2000
P,BONNIE LANE,1371112596,CM61-BEAD-NV-CLA-0967-0,2047 BONNIE LN,LAS VEGAS,NV,89156,36.196948,-115.046911,71,2000,2000
P,BOULDER PINES,1371118018,CM61-BEAD-NV-CLA-0967-0,4375 BOULDER HWY,LAS VEGAS,NV,89121,36.126216,-115.077073,71,2000,2000
P,BOULDER PINES II,1371118018,CM61-BEAD-NV-CLA-0967-0,4375 BOULDER HWY,LAS VEGAS,NV,89121,36.126216,-115.077073,71,2000,2000
P,BRISTLECONE APTS.,1050915309,CM61-BEAD-NV-WHI-0991-1,1650 AVENUE F BLDG 2,ELY,NV,89301,39.25837,-114.857708,50,1000,1000
P,BRISTLECONE EAST APTS.,1050918474,CM61-BEAD-NV-WHI-0991-1,664 E 16TH ST,ELY,NV,89301,39.258065,-114.858466,50,1000,1000
P,BROWN HOMES,1394014415,CM61-BEAD-NV-CLA-0967-0,3900 PERRY ST,LAS VEGAS,NV,89122,36.117633,-115.061987,71,2000,2000
P,BROYLES RANCH APTS.,1095970814,CM61-BEAD-NV-LAN-1000-1,690 BROYLES RANCH RD,BATTLE MTN,NV,89820,40.642788,-116.948119,50,1000,1000
P,BUENA VISTA SPRINGS III,1371024938,CM61-BEAD-NV-CLA-0967-0,2510 MORTON AVE,N LAS VEGAS,NV,89032,36.204695,-115.16144,71,2000,2000
P,CALCATERRA APTS,1371022280,CM61-BEAD-NV-CLA-0967-0,485 CALCATERRA CIR,LAS VEGAS,NV,89119,36.11803,-115.15258,71,2000,2000
G,Carlin Administrative Building,1297899489,CM61-BEAD-NV-ELK-0786-0,151 8TH ST,CARLIN,NV,89822,40.71278,-116.106048,50,2000,2000
F,Carlin City Hall,1297899449,CM61-BEAD-NV-ELK-0786-0,152 8TH ST,CARLIN,NV,89822,40.712608,-116.106497,50,2000,2000
F,Carlin Fire Station,1297898350,CM61-BEAD-NV-ELK-0786-0,121 HAMILTON ST,CARLIN,NV,89822,40.711454,-116.115263,50,2000,2000
P,CAROL HAYNES APTS,1371015721,CM61-BEAD-NV-CLA-0967-0,5160 GENERAL MILES WAY,LAS VEGAS,NV,89122,36.117399,-115.06108,71,2000,2000
G,Carson City Courthouse,1287892408,CM61-BEAD-NV-CAR-1011-1,198 N CARSON ST,CARSON CITY,NV,89701,39.164283,-119.76733,71,5000,5000
F,Carson City Fire Department,1287885487,CM61-BEAD-NV-CAR-1011-1,648 LITTLE LN,CARSON CITY,NV,89701,39.15819,-119.763477,71,5000,5000
G,Carson City Hall,1287892698,CM61-BEAD-NV-CAR-1011-1,201 N CARSON ST,CARSON CITY,NV,89701,39.164895,-119.766548,71,5000,5000
C,Carson City Juvenile Court,1287889141,CM61-BEAD-NV-CAR-1011-1,1545 E FIFTH ST,CARSON CITY,NV,89701,39.160671,-119.751435,71,5000,5000
G,Carson City Sheriff's Office,1287905041,CM61-BEAD-NV-CAR-1011-1,911 E MUSSER ST,CARSON CITY,NV,89701,39.163648,-119.760015,71,5000,5000
H,Carson Tahoe Health Dayton Medical Center,1103985663,CM61-BEAD-NV-LYO-0911-0,901 MEDICAL CENTER DR,DAYTON,NV,89403,39.268961,-119.574825,50,5000,5000
C,Casa Grande Transitional Housing Center,1371433551,CM61-BEAD-NV-CLA-0970-1,3925 W RUSSELL RD,LAS VEGAS,NV,89118,36.085754,-115.192291,40,2000,2000
P,CASA OLIVA APTS,1370963287,CM61-BEAD-NV-CLA-0967-0,3209 CEDAR ST,LAS VEGAS,NV,89104,36.155771,-115.105173,71,2000,2000
C,Churchill County Juvenile Justice Center,1066332917,CM61-BEAD-NV-CHU-1036-0,335 N BROADWAY ST,FALLON,NV,89406,39.479126,-118.774546,50,5000,5000
P,CIMARRON VILLAGE,1394133406,CM61-BEAD-NV-ELK-0794-0,550 CIMARRON WAY BLDG 2,ELKO,NV,89801,40.834159,-115.782089,50,2000,2000
F,City of Ely Fire Department,1050918592,CM61-BEAD-NV-WHI-0991-1,1780 GREAT BASIN BLVD,ELY,NV,89301,39.24231,-114.867756,50,1000,1000
F,City of Las Vegas Fire Station Number 2,1370996697,CM61-BEAD-NV-CLA-0970-1,900 S DURANGO DR,LAS VEGAS,NV,89145,36.161687,-115.278423,40,2000,2000
F,City of Las Vegas Fire Station Number 4,1370875780,CM61-BEAD-NV-CLA-0967-0,421 S 15TH ST,LAS VEGAS,NV,89101,36.159991,-115.131527,71,2000,2000
F,City of Las Vegas Fire Station Number 41,1371123153,CM61-BEAD-NV-CLA-0997-1,6989 N BUFFALO DR,LAS VEGAS,NV,89131,36.286896,-115.260925,71,2200,2200
F,City of Las Vegas Fire Station Number 42,1371371243,CM61-BEAD-NV-CLA-0970-1,7331 W CHEYENNE AVE,LAS VEGAS,NV,89129,36.217854,-115.2528,40,2000,2000
F,City of Las Vegas Fire Station Number 43,1371217387,CM61-BEAD-NV-CLA-0970-1,6420 SMOKE RANCH RD,LAS VEGAS,NV,89108,36.203643,-115.23402,40,2000,2000
F,City of Las Vegas Fire Station Number 44,1371147295,CM61-BEAD-NV-CLA-0970-1,7701 W WASHINGTON AVE,LAS VEGAS,NV,89128,36.180962,-115.262349,40,2000,2000
F,City of Las Vegas Fire Station Number 45,1370970820,CM61-BEAD-NV-CLA-0970-1,3821 N FORT APACHE RD,LAS VEGAS,NV,89129,36.230498,-115.298126,40,2000,2000
F,City of Las Vegas Fire Station Number 7,1371283132,CM61-BEAD-NV-CLA-0970-1,10101 BANBURRY CROSS DR,LAS VEGAS,NV,89144,36.181814,-115.315414,40,2000,2000
F,City of Las Vegas Fire Station Number 8,1371416011,CM61-BEAD-NV-CLA-0967-0,3010 HARRIS AVE,LAS VEGAS,NV,89101,36.178223,-115.106953,71,2000,2000
F,City of Las Vegas Fire Station Number 9,1371476986,CM61-BEAD-NV-CLA-0970-1,4747 N RAINBOW BLVD,LAS VEGAS,NV,89108,36.247377,-115.242691,40,2000,2000
F,Clark County Fire Department,1371502812,CM61-BEAD-NV-CLA-0967-0,5210 S PECOS RD,LAS VEGAS,NV,89120,36.095459,-115.10049,71,2000,2000
F,Clark County Fire Station #29,1371303084,CM61-BEAD-NV-CLA-0969-1,7530 PARADISE RD,LAS VEGAS,NV,89123,36.053149,-115.14016,71,2000,2000
F,Clark County Fire Station 23,1371473153,CM61-BEAD-NV-CLA-0967-0,4250 E ALEXANDER RD,LAS VEGAS,NV,89115,36.233106,-115.081547,71,2000,2000
F,Clark County Fire Station 24,1371362141,CM61-BEAD-NV-CLA-0969-1,7525 DEAN MARTIN DR,LAS VEGAS,NV,89139,36.053001,-115.184054,71,2000,2000
F,Clark County Fire Station 65,1371191629,CM61-BEAD-NV-CLA-0969-1,3825 W STARR AVE,LAS VEGAS,NV,89141,35.984352,-115.190273,71,2000,2000
F,Clark County Fire Station 87,1371563672,CM61-BEAD-NV-CLA-0025-0,20400 S LAS VEGAS BLVD,JEAN,NV,89019,35.77371,-115.32665,50,1000,1000
F,Clark County Fire Station Number 11,1371506587,CM61-BEAD-NV-CLA-0970-1,5150 LAS VEGAS BLVD S,LAS VEGAS,NV,89119,36.083293,-115.173846,40,2000,2000
F,Clark County Fire Station Number 12,1371113892,CM61-BEAD-NV-CLA-0967-0,3050 SAMMY DAVIS JR DR,LAS VEGAS,NV,89109,36.133607,-115.171152,71,2000,2000
F,Clark County Fire Station Number 13,1370914105,CM61-BEAD-NV-CLA-0970-1,5795 PARADISE RD BLDG 3,LAS VEGAS,NV,89119,36.082424,-115.156531,40,2000,2000
F,Clark County Fire Station Number 14,1371206926,CM61-BEAD-NV-CLA-0967-0,3260 TOPAZ ST,LAS VEGAS,NV,89121,36.130804,-115.113787,71,2000,2000
F,Clark County Fire Station Number 15,1371454916,CM61-BEAD-NV-CLA-0970-1,3480 S VALLEY VIEW BLVD,LAS VEGAS,NV,89102,36.127239,-115.18964,40,2000,2000
F,Clark County Fire Station Number 18,1371174328,CM61-BEAD-NV-CLA-0967-0,575 E FLAMINGO RD,LAS VEGAS,NV,89119,36.114278,-115.151026,71,2000,2000
F,Clark County Fire Station Number 21,1371265787,CM61-BEAD-NV-CLA-0970-1,5015 W OQUENDO RD,LAS VEGAS,NV,89118,36.082208,-115.20941,40,2000,2000
F,Clark County Fire Station Number 22,1371220038,CM61-BEAD-NV-CLA-0970-1,6745 W FLAMINGO RD,LAS VEGAS,NV,89103,36.114095,-115.239137,40,2000,2000
F,Clark County Fire Station Number 26,1371523673,CM61-BEAD-NV-CLA-0970-1,4030 S EL CAPITAN WAY,LAS VEGAS,NV,89147,36.116421,-115.287522,40,2000,2000
F,Clark County Fire Station Number 27,1371090694,CM61-BEAD-NV-CLA-0967-0,4695 VEGAS VALLEY DR,LAS VEGAS,NV,89121,36.136496,-115.072539,71,2000,2000
F,Clark County Fire Station Number 28,1371482591,CM61-BEAD-NV-CLA-0970-1,10820 W SAHARA AVE,LAS VEGAS,NV,89135,36.144997,-115.329409,40,2000,2000
F,Clark County Fire Station Number 31,1370988890,CM61-BEAD-NV-CLA-0967-0,2190 S HOLLYWOOD BLVD,LAS VEGAS,NV,89142,36.147897,-115.028666,71,2000,2000
F,Clark County Fire Station Number 34,1371424712,CM61-BEAD-NV-CLA-0969-1,8675 W OQUENDO RD,LAS VEGAS,NV,89148,36.081076,-115.280992,71,2000,2000
F,Clark County Fire Station Number 38,1370961906,CM61-BEAD-NV-CLA-0969-1,1755 SILVER HAWK AVE,LAS VEGAS,NV,89123,36.021833,-115.128005,71,2000,2000
F,Clark County Fire Station Number 73,1371591871,CM61-BEAD-NV-CLA-0003-0,3570 LYMAN ST,LAS VEGAS,NV,89124,36.606059,-114.474182,50,1000,1000
F,Clark County Fire Station Number 78,1371572095,CM61-BEAD-NV-CLA-0027-0,375 BEACON ST,GOODSPRINGS,NV,89019,35.836081,-115.440818,50,1000,1000
F,Cold Creek Volunteer Fire Department,1080052051,CM61-BEAD-NV-EUR-0838-0,790 S MONROE ST,EUREKA,NV,89316,39.505827,-115.960792,50,1000,1000
P,CORDERO PINES,1371426857,CM61-BEAD-NV-CLA-0967-0,499 N LAMB BLVD,LAS VEGAS,NV,89110,36.170501,-115.082494,71,2000,2000
P,CORDERO PINES II,1371426857,CM61-BEAD-NV-CLA-0967-0,499 N LAMB BLVD,LAS VEGAS,NV,89110,36.170501,-115.082494,71,2000,2000
P,COTTONWOOD APTS.,1371561380,CM61-BEAD-NV-CLA-0871-0,350 E SURPRISE ST,SEARCHLIGHT,NV,89046,35.464322,-114.915062,50,2000,2000
P,COURTYARDS APT.,1316444265,CM61-BEAD-NV-NYE-0867-0,2831 E DANDELION ST,PAHRUMP,NV,89048,36.174582,-115.962285,50,1000,1000
P,CRESTMORE VILLAGE APT.  II,1120234043,CM61-BEAD-NV-DOU-1031-0,1336 ELGES AVE BLDG 2,GARDNERVILLE,NV,89410,38.934559,-119.732165,50,2500,2500
P,CRESTMORE VILLAGE APTS.,1120234046,CM61-BEAD-NV-DOU-1031-0,1330 STODICK PKWY,GARDNERVILLE,NV,89410,38.935058,-119.732322,50,2500,2500
P,DECATUR PINES,1370925489,CM61-BEAD-NV-CLA-0997-1,6725 N DECATUR BLVD,LAS VEGAS,NV,89131,36.282503,-115.207819,71,2200,2200
P,DECATUR PINES II,1370925424,CM61-BEAD-NV-CLA-0997-1,6741 N DECATUR BLVD,LAS VEGAS,NV,89131,36.283061,-115.208417,71,2200,2200
G,Department of Health and Human Services Nevada Division of Public and Behavioral Health (DPBH),1287895726,CM61-BEAD-NV-CAR-1011-1,675 FAIRVIEW DR,CARSON CITY,NV,89701,39.149491,-119.76156,71,5000,5000
P,DESERT APARTMENTS,1316450180,CM61-BEAD-NV-NYE-0860-1,1130 S MAIN ST BLDG 2,TONOPAH,NV,89049,38.059821,-117.217289,50,1000,1000
P,DESERT OASIS APTS,1371183491,CM61-BEAD-NV-CLA-0967-0,4445 DIAMOND HEAD DR,LAS VEGAS,NV,89110,36.170815,-115.07902,71,2000,2000
P,DESERT OASIS II,1371183491,CM61-BEAD-NV-CLA-0967-0,4445 DIAMOND HEAD DR,LAS VEGAS,NV,89110,36.170815,-115.07902,71,2000,2000
P,DESERT PINES I,1371085608,CM61-BEAD-NV-CLA-0967-0,3750 E BONANZA RD BLDG 2,LAS VEGAS,NV,89110,36.175329,-115.09429,71,2000,2000
P,DESERT PINES II,1371085608,CM61-BEAD-NV-CLA-0967-0,3750 E BONANZA RD BLDG 2,LAS VEGAS,NV,89110,36.175329,-115.09429,71,2000,2000
P,DESERT PINES III,1371085608,CM61-BEAD-NV-CLA-0967-0,3750 E BONANZA RD BLDG 2,LAS VEGAS,NV,89110,36.175329,-115.09429,71,2000,2000
P,DESERT PINES IV,1371085608,CM61-BEAD-NV-CLA-0967-0,3750 E BONANZA RD BLDG 2,LAS VEGAS,NV,89110,36.175329,-115.09429,71,2000,2000
P,DESERT SENIOR/DESERT PROPERTIES,1316450184,CM61-BEAD-NV-NYE-0860-1,1000 ERIE MAIN ST,TONOPAH,NV,89049,38.060268,-117.217562,50,1000,1000
P,DIANA ARMS II,1297883692,CM61-BEAD-NV-ELK-0794-0,1805 RUBY VIEW DR,ELKO,NV,89801,40.850018,-115.759453,50,2000,2000
P,DOROTHY KIDD MOBILE HOME PARK,1371302929,CM61-BEAD-NV-CLA-0967-0,3954 GENERAL GARFIELD,LAS VEGAS,NV,89122,36.11673,-115.05943,71,2000,2000
G,Douglas County District Court and Sheriff Office,1120244780,CM61-BEAD-NV-DOU-1044-0,1038 BUCKEYE RD BLDG 2,MINDEN,NV,89423,38.955891,-119.765331,50,2500,2500
F,East Fork FIre Station 1,1120244812,CM61-BEAD-NV-DOU-1044-0,1606 US HIGHWAY 395 N,MINDEN,NV,89423,38.954145,-119.764058,50,2500,2500
F,East Fork Fire Station 10,1120236321,CM61-BEAD-NV-DOU-0122-0,2008 PINTO CIR,GARDNERVILLE,NV,89410,38.896326,-119.676543,50,2500,2500
F,East Fork FIre Station 7,1120248893,CM61-BEAD-NV-DOU-1031-0,940 MITCH DR,GARDNERVILLE,NV,89460,38.90695,-119.731015,50,2500,2500
F,East Fork Fire Station 9,1120233913,CM61-BEAD-NV-DOU-0881-0,2249 FISH SPRINGS RD,GARDNERVILLE,NV,89410,38.935944,-119.655893,50,2500,2500
F,Elko County Emergency Medical Services,1297878066,CM61-BEAD-NV-ELK-0794-0,729 13TH ST,ELKO,NV,89801,40.84041,-115.759875,50,2000,2000
C,Elko County Social Services Department,1297877600,CM61-BEAD-NV-ELK-0794-0,875 RAILROAD ST,ELKO,NV,89801,40.835129,-115.759107,50,2000,2000
F,Elko Fire Station 3,1297883130,CM61-BEAD-NV-ELK-0794-0,875 S 5TH ST,ELKO,NV,89801,40.827925,-115.748594,50,2000,2000
F,Elko Parks and Recreation Department,1297877669,CM61-BEAD-NV-ELK-0794-0,725 RAILROAD ST,ELKO,NV,89801,40.834113,-115.760429,50,2000,2000
P,ERNIE CRAGIN TERRACE,1370856388,CM61-BEAD-NV-CLA-0967-0,78 N 28TH ST,LAS VEGAS,NV,89101,36.161992,-115.111226,71,2000,2000
P,ESCONDIDO APTS,1371018016,CM61-BEAD-NV-CLA-0967-0,5258 MARYLAND PKWY,LAS VEGAS,NV,89119,36.09557,-115.136856,71,2000,2000
F,Euclid Fire Department,1108935424,CM61-BEAD-NV-ESM-0144-1,369 EUCLID AVE,GOLDFIELD,NV,89013,37.705737,-117.235384,50,2000,2000
G,Eureka County Courthouse,1080055876,CM61-BEAD-NV-EUR-0838-0,10 S MAIN ST,EUREKA,NV,89316,39.512175,-115.961183,50,1000,1000
F,Eureka County Justice Facility,1080055883,CM61-BEAD-NV-EUR-0838-0,411 N MAIN ST,EUREKA,NV,89316,39.516955,-115.962381,50,1000,1000
F,Eureka Fire Department,1080051740,CM61-BEAD-NV-EUR-0838-0,260 N MAIN ST,EUREKA,NV,89316,39.515132,-115.962436,50,1000,1000
H,Eureka Medical Center,1080051863,CM61-BEAD-NV-EUR-0838-0,180 S MAIN ST,EUREKA,NV,89316,39.510939,-115.960885,50,1000,1000
P,EVA GARCIA MENDOZA,1371422055,CM61-BEAD-NV-CLA-0967-0,1950 N WALNUT RD,LAS VEGAS,NV,89115,36.193285,-115.088288,71,2000,2000
L,Fernley Branch Library,1103996283,CM61-BEAD-NV-LYO-1038-0,575 SILVERLACE BLVD,FERNLEY,NV,89408,39.60549,-119.240591,50,5000,5000
F,Fire station,1316447322,CM61-BEAD-NV-NYE-0853-0,374 W MAIN ST,MANHATTAN,NV,89022,38.538438,-117.072385,50,1000,1000
F,Fire station,1316451036,CM61-BEAD-NV-NYE-0116-0,3595 E CLARK ST,AMARGOSA VLY,NV,89020,36.411759,-116.420002,50,1000,1000
F,Fire Station,1351298722,CM61-BEAD-NV-WAS-0063-1,10575 SILVER LAKE RD,RENO,NV,89506,39.625498,-119.883717,71,5000,5000
F,Fire Station 10 - Las Vegas Fire and Rescue,1371033707,CM61-BEAD-NV-CLA-0967-0,1501 S MARTIN L KING BLVD,LAS VEGAS,NV,89102,36.154493,-115.163678,71,2000,2000
F,Fire Station 10 - Las Vegas Fire and Rescue - Bldg 2,1371033693,CM61-BEAD-NV-CLA-0967-0,1501 S MARTIN L KING BLVD BLDG 2,LAS VEGAS,NV,89102,36.154132,-115.163674,71,2000,2000
F,Fire Station 103 - Las Vegas Fire and Rescue,1371474387,CM61-BEAD-NV-CLA-0970-1,190 UPLAND BLVD,LAS VEGAS,NV,89107,36.173141,-115.222958,40,2000,2000
F,Fire Station 25,1351358271,CM61-BEAD-NV-WAS-1005-1,400 STAMPMILL DR,WADSWORTH,NV,89442,39.617556,-119.311249,50,5000,5000
F,Fire Station 3 - Las Vegas Fire and Rescue,1371315929,CM61-BEAD-NV-CLA-0967-0,2645 W WASHINGTON AVE,LAS VEGAS,NV,89106,36.180664,-115.177139,71,2000,2000
F,Fire Station 47 - Las Vegas Fire and Rescue,1371605565,CM61-BEAD-NV-CLA-0970-1,91 RIDGE PINE ST,LAS VEGAS,NV,89138,36.18182,-115.349727,40,2000,2000
F,Fire Station 5 - Las Vegas Fire and Rescue,1371170651,CM61-BEAD-NV-CLA-0967-0,984 HINSON ST,LAS VEGAS,NV,89107,36.160518,-115.195733,71,2000,2000
F,Fire Station 53,1287884628,CM61-BEAD-NV-CAR-1011-1,4649 SNYDER AVE,CARSON CITY,NV,89701,39.125262,-119.767594,71,5000,5000
P,FLAMINGO PINES II SENIOR APTS,1371076152,CM61-BEAD-NV-CLA-0970-1,8710 W FLAMINGO RD,LAS VEGAS,NV,89147,36.115994,-115.282028,40,2000,2000
P,FLAMINGO PINES III,1371076152,CM61-BEAD-NV-CLA-0970-1,8710 W FLAMINGO RD,LAS VEGAS,NV,89147,36.115994,-115.282028,40,2000,2000
P,FLAMINGO PINES SR APTS,1371076152,CM61-BEAD-NV-CLA-0970-1,8710 W FLAMINGO RD,LAS VEGAS,NV,89147,36.115994,-115.282028,40,2000,2000
P,FROST YASMER ESTATES,1287893895,CM61-BEAD-NV-CAR-1011-1,1009 E FIFTH ST,CARSON CITY,NV,89701,39.160876,-119.757851,71,5000,5000
F,Galena Volunteer Fire Department,1351377587,CM61-BEAD-NV-WAS-0919-0,16255 MOUNT ROSE HWY BLDG 2,RENO,NV,89511,39.378948,-119.832088,71,5000,5000
F,Gerlach General Improvement District,1351356988,CM61-BEAD-NV-WAS-0966-0,395 E SUNSET BLVD,GERLACH,NV,89412,40.652819,-119.355598,50,2500,2500
F,Grass Valley Volunteer Fire Department,1030196115,CM61-BEAD-NV-PER-0767-1,5505 KATRINA DR,WINNEMUCCA,NV,89445,40.831361,-117.746728,50,5000,5000
F,Great Basin Children's Advocacy Center,1297878042,CM61-BEAD-NV-ELK-0794-0,1401 COLLEGE AVE,ELKO,NV,89801,40.841703,-115.757626,50,2000,2000
P,GREEN ACRE PARK APTS,1297877698,CM61-BEAD-NV-ELK-0794-0,851 COURT ST,ELKO,NV,89801,40.836215,-115.761486,50,2000,2000
P,HARMON PINES SR APTS.,1371313774,CM61-BEAD-NV-CLA-0970-1,6000 W HARMON AVE,LAS VEGAS,NV,89103,36.108217,-115.22333,40,2000,2000
P,HARRISON PINES I & II SR APTS,1371446133,CM61-BEAD-NV-CLA-0967-0,5045 HARRISON DR,LAS VEGAS,NV,89120,36.098164,-115.113595,71,2000,2000
P,HARRISON PINES III,1371114334,CM61-BEAD-NV-CLA-0967-0,5070 HARRISON DR,LAS VEGAS,NV,89120,36.097112,-115.111452,71,2000,2000
P,HARRY LEVY GARDENS,1371315926,CM61-BEAD-NV-CLA-0967-0,2525 W WASHINGTON AVE,LAS VEGAS,NV,89106,36.180488,-115.175733,71,2000,2000
F,Hawthorne Volunteer Fire Department,1137089022,CM61-BEAD-NV-MIN-0031-0,24 MINERAL RD,HAWTHORNE,NV,89415,38.516809,-118.62526,50,5000,5000
P,HELP GENESIS @ OWENS,1370974076,CM61-BEAD-NV-CLA-0967-0,1581 N MAIN ST,LAS VEGAS,NV,89101,36.187653,-115.136492,71,2000,2000
P,HELP RENAISSANCE,1370974078,CM61-BEAD-NV-CLA-0967-0,1455 N MAIN ST,LAS VEGAS,NV,89101,36.186835,-115.137152,71,2000,2000
P,HERITAGE PARK APTS. (NYE COMMUNITIES),1316421541,CM61-BEAD-NV-NYE-0620-0,1225 CROWELL AVE,BEATTY,NV,89003,36.901742,-116.765669,50,1000,1000
P,HIGHLAND TERRACE,1050916133,CM61-BEAD-NV-WHI-0991-1,115 W HIGHLAND DR,ELY,NV,89301,39.243078,-114.865561,50,1000,1000
P,HOMESTEAD (NYE COMMUNITIES BUNDLED WITH HERITAGE PK.),1316461440,CM61-BEAD-NV-NYE-0867-0,4451 N BLAGG RD,PAHRUMP,NV,89060,36.285039,-116.014051,50,1000,1000
P,HORIZON CREST,1370974069,CM61-BEAD-NV-CLA-0967-0,6 W OWENS AVE BLDG 2,LAS VEGAS,NV,89106,36.188154,-115.138282,71,2000,2000
P,HULLUM HOMES,1393938340,CM61-BEAD-NV-CLA-0967-0,4980 E OWENS AVE,LAS VEGAS,NV,89110,36.18957,-115.064711,71,2000,2000
F,Jacob's Well Youth Center,1095969670,CM61-BEAD-NV-LAN-1000-1,101 CARSON RD,BATTLE MTN,NV,89820,40.633249,-116.949733,50,1000,1000
P,JAMES DOWN TOWERS,1370976711,CM61-BEAD-NV-CLA-0970-1,5000 ALTA DR,LAS VEGAS,NV,89107,36.16705,-115.209424,40,2000,2000
P,JANICE BROOKS BAY,1370851288,CM61-BEAD-NV-CLA-0967-0,5201 WALNUT AVE,LAS VEGAS,NV,89110,36.170915,-115.060033,71,2000,2000
P,JAYCEE MOBILE HOME PARK,1370845781,CM61-BEAD-NV-CLA-0970-1,5805 W HARMON AVE,LAS VEGAS,NV,89103,36.105617,-115.220666,40,2000,2000
P,JOHN CHAMBERS APTS,1371342297,CM61-BEAD-NV-CLA-0967-0,2030 CAMEL ST,LAS VEGAS,NV,89115,36.196409,-115.090834,71,2000,2000
P,JOHN MARVEL I AND II,1095969395,CM61-BEAD-NV-LAN-1000-1,145 PALMER ST,BATTLE MTN,NV,89820,40.63934,-116.942116,50,1000,1000
P,JONES GARDENS,1370841508,CM61-BEAD-NV-CLA-0967-0,1750 MARION DR,LAS VEGAS,NV,89115,36.191491,-115.069675,71,2000,2000
P,KINGSBURY VILLAGE,1120244085,CM61-BEAD-NV-DOU-1044-0,1770 PINEWOOD DR,MINDEN,NV,89423,38.962545,-119.782178,50,2500,2500
G,Lander County Courthouse & Administration,1095968837,CM61-BEAD-NV-LAN-1000-1,65 STATE ROUTE 305,BATTLE MTN,NV,89820,40.631586,-116.953647,50,1000,1000
F,Lander County Fire Department,1095969224,CM61-BEAD-NV-LAN-1000-1,15 E 2ND ST,BATTLE MOUNTAIN,NV,89820,40.641497,-116.935025,50,1000,1000
F,Lander County Sheriff's Office,1095968922,CM61-BEAD-NV-LAN-1000-1,39 STATE ROUTE 305,BATTLE MOUNTAIN,NV,89820,40.631135,-116.949725,50,1000,1000
F,Las Vegas Metropolitan Police Department,1371001552,CM61-BEAD-NV-CLA-0967-0,1851 STELLA LAKE ST,LAS VEGAS,NV,89106,36.192648,-115.164861,71,2000,2000
F,Las Vegas Metropolitan Police Department,1371146362,CM61-BEAD-NV-CLA-0967-0,750 SIERRA VISTA DR,LAS VEGAS,NV,89169,36.12769,-115.14672,71,2000,2000
F,Las Vegas Metropolitan Police Department,1371563673,CM61-BEAD-NV-CLA-0025-0,23120 S LAS VEGAS BLVD,JEAN,NV,89019,35.772539,-115.332539,50,1000,1000
F,Las Vegas Metropolitan Police Department Downtown Substation,1371290873,CM61-BEAD-NV-CLA-0967-0,601 N 9TH ST,LAS VEGAS,NV,89101,36.174832,-115.134509,71,2000,2000
F,Las Vegas Metropolitan Police Department Northwest Substation,1371481659,CM61-BEAD-NV-CLA-0970-1,9880 W CHEYENNE AVE,LAS VEGAS,NV,89129,36.218912,-115.309857,40,2000,2000
F,"Las Vegas Metropolitan Police Department, Enterprise Area Command",1371071482,CM61-BEAD-NV-CLA-0969-1,6975 W WINDMILL LN,LAS VEGAS,NV,89113,36.040536,-115.245059,71,2000,2000
F,Las Vegas Metropolitan Police Southern Command,1371446227,CM61-BEAD-NV-CLA-0970-1,4860 LAS VEGAS BLVD S,LAS VEGAS,NV,89119,36.084504,-115.173874,40,2000,2000
C,Las Vegas Readiness Center,1371400977,CM61-BEAD-NV-CLA-0969-1,4500 W SILVERADO RANCH BLVD,LAS VEGAS,NV,89139,36.017011,-115.200968,71,2000,2000
F,Law Enforcement Center,1297885133,CM61-BEAD-NV-ELK-0794-0,775 W SILVER ST,ELKO,NV,89801,40.824711,-115.772368,50,2000,2000
P,LINDELL HARBOR APTS.,1371067034,CM61-BEAD-NV-CLA-0970-1,3440 LINDELL RD,LAS VEGAS,NV,89146,36.126956,-115.216021,40,2000,2000
P,LUBERTHA JOHNSON,1394014415,CM61-BEAD-NV-CLA-0967-0,3900 PERRY PLAZA,LAS VEGAS,NV,89122,36.117965,-115.062949,71,2000,2000
F,Lund Volunteer Fire Department,1394115471,CM61-BEAD-NV-WHI-0835-1,107 1ST ST,ELY,NV,89301,38.856056,-115.005743,50,1000,1000
P,MARBLE MANOR 1,1371380362,CM61-BEAD-NV-CLA-0967-0,803 W WASHINGTON AVE,LAS VEGAS,NV,89106,36.180604,-115.15215,71,2000,2000
P,MARBLE MANOR 2,1371234151,CM61-BEAD-NV-CLA-0967-0,813 REED PL,LAS VEGAS,NV,89106,36.180285,-115.15687,71,2000,2000
P,MARBLE MANOR 3,1370898603,CM61-BEAD-NV-CLA-0967-0,800 W MCWILLIAMS AVE,LAS VEGAS,NV,89106,36.179395,-115.152221,71,2000,2000
P,MARBLE MANOR 4,1371473593,CM61-BEAD-NV-CLA-0967-0,739 MORGAN AVE BLDG 2,LAS VEGAS,NV,89106,36.180022,-115.153499,71,2000,2000
P,MARBLE MANOR ANNEX,1370876862,CM61-BEAD-NV-CLA-0967-0,1764 N MARTIN L KING BLVD,LAS VEGAS,NV,89106,36.190429,-115.160468,71,2000,2000
P,"MARION D. BENNETT, SR.",1371504899,CM61-BEAD-NV-CLA-0967-0,1818 BALZAR AVE,LAS VEGAS,NV,89106,36.200103,-115.165021,71,2000,2000
F,Mark Twain Community Center,1118172019,CM61-BEAD-NV-STO-1007-0,500 SAM CLEMENS AVE,DAYTON,NV,89403,39.306295,-119.55398,50,5000,5000
P,MCFARLAND SENIOR APTS,1371242108,CM61-BEAD-NV-CLA-0967-0,4988 JEFFREYS ST,LAS VEGAS,NV,89119,36.098568,-115.120805,71,2000,2000
F,McGill Volunteer Fire Department,1050918785,CM61-BEAD-NV-WHI-0827-1,2 FOURTH ST BLDG 2,MC GILL,NV,89318,39.40557,-114.778225,50,1000,1000
F,Mina Volunteer Fire Department,1137089035,CM61-BEAD-NV-MIN-0032-1,960 FRONT ST,MINA,NV,89422,38.391016,-118.108339,50,5000,5000
F,Mineral County Court,1137090825,CM61-BEAD-NV-MIN-0031-0,105 A ST,HAWTHORNE,NV,89415,38.517444,-118.628984,50,5000,5000
F,Moapa Recreation Center,1371569245,CM61-BEAD-NV-CLA-0008-0,1340 E STATE HWY 168,MOAPA,NV,89025,36.671245,-114.589893,50,1000,1000
P,MOJAVE CEDAR SUPPORTIVE HOUSING,1370911877,CM61-BEAD-NV-CLA-0967-0,2837 CEDAR ST,LAS VEGAS,NV,89104,36.156321,-115.104969,71,2000,2000
P,MOUNTAIN SHADOWS APTS.,1297876741,CM61-BEAD-NV-ELK-0794-0,1805 WINCHESTER DR,ELKO,NV,89801,40.829451,-115.734955,50,2000,2000
P,MOUNTAIN VIEW APTS.,1297903353,CM61-BEAD-NV-ELK-0161-0,1201 LADY LUCK DR,JACKPOT,NV,89825,41.985802,-114.665219,50,1000,1000
P,MSGR CT SHALLOW SENIOR HOUSING,1371290301,CM61-BEAD-NV-CLA-0967-0,561 N MOJAVE RD,LAS VEGAS,NV,89101,36.17301,-115.106647,71,2000,2000
P,NCEP SPENCER ST,1370833944,CM61-BEAD-NV-CLA-0967-0,4148 SPENCER ST,LAS VEGAS,NV,89119,36.113254,-115.127828,71,2000,2000
P,NCEP SPENCER ST PHASE II,1370833944,CM61-BEAD-NV-CLA-0967-0,4148 SPENCER ST,LAS VEGAS,NV,89119,36.113254,-115.127828,71,2000,2000
G,Nevada Army National Guard Recruiting,1287894457,CM61-BEAD-NV-CAR-1011-1,2444 FAIRVIEW DR,CARSON CITY,NV,89701,39.152193,-119.739088,71,5000,5000
F,Nevada Department of Agriculture,1297874283,CM61-BEAD-NV-ELK-0794-0,4780 E IDAHO ST,ELKO,NV,89801,40.869461,-115.727171,50,2000,2000
H,Nevada Department of Health and Human Services - Desert Regional Center,1370939134,CM61-BEAD-NV-CLA-0970-1,6160 TRANSVERSE DR,LAS VEGAS,NV,89146,36.157388,-115.225645,40,2000,2000
G,"Nevada Department of Motor Vehicles, Highway Patrol Headquarters",1287896663,CM61-BEAD-NV-CAR-1011-1,1286 OREGON ST,CARSON CITY,NV,89701,39.154266,-119.763271,71,5000,5000
G,Nevada Department of Public Safety,1287894305,CM61-BEAD-NV-CAR-1011-1,333 W NYE LN,CARSON CITY,NV,89706,39.186045,-119.768395,71,5000,5000
F,Nevada Department of Public Safety,1371075030,CM61-BEAD-NV-CLA-0997-1,9043 ACKERMAN AVE,LAS VEGAS,NV,89143,36.308039,-115.293324,71,2200,2200
F,Nevada Disability Emp Policy,1287889995,CM61-BEAD-NV-CAR-1011-1,1340 S CURRY ST,CARSON CITY,NV,89703,39.155931,-119.768402,71,5000,5000
G,Nevada Division of Public and Behavioral Health,1287893405,CM61-BEAD-NV-CAR-0914-0,4150 TECHNOLOGY WAY,CARSON CITY,NV,89706,39.197001,-119.723699,50,5000,5000
G,Nevada Gaming Control Board,1370928930,CM61-BEAD-NV-CLA-0967-0,1015 CLASSIC CARS LN,LAS VEGAS,NV,89101,36.182635,-115.132283,71,2000,2000
G,Nevada State Fire Marshall,1287899416,CM61-BEAD-NV-CAR-1011-1,12 WAPAISHONE AVE,CARSON CITY,NV,89701,39.114157,-119.756996,71,5000,5000
G,Nevada Taxation Department,1287895251,CM61-BEAD-NV-CAR-0914-0,1550 COLLEGE PKWY,CARSON CITY,NV,89706,39.190459,-119.750291,50,5000,5000
F,NLVPD Northwest Area Command,1371228994,CM61-BEAD-NV-CLA-0997-1,3755 W WASHBURN RD,N LAS VEGAS,NV,89031,36.253665,-115.190214,71,2200,2200
G,North Las Vegas City Hall,1371310076,CM61-BEAD-NV-CLA-0967-0,2250 LAS VEGAS BLVD N,N LAS VEGAS,NV,89030,36.200498,-115.12151,71,2000,2000
F,North Las Vegas Fire Station 56,1371124304,CM61-BEAD-NV-CLA-0997-1,3475 ELKHORN RD,N LAS VEGAS,NV,89084,36.29071,-115.186105,71,2200,2200
F,North Las Vegas Fire Station 57,1371476907,CM61-BEAD-NV-CLA-0997-1,3120 E AZURE AVE,N LAS VEGAS,NV,89081,36.273131,-115.105175,71,2200,2200
F,North Las Vegas Fire Station Number 51,1370962807,CM61-BEAD-NV-CLA-0967-0,2626 E CAREY AVE,N LAS VEGAS,NV,89030,36.203542,-115.113305,71,2000,2000
F,North Las Vegas Fire Station Number 52,1371496388,CM61-BEAD-NV-CLA-0967-0,4110 LOSEE RD,N LAS VEGAS,NV,89030,36.234555,-115.116134,71,2000,2000
F,North Las Vegas Fire Station Number 54,1371338911,CM61-BEAD-NV-CLA-0997-1,5430 CAMINO AL NORTE,N LAS VEGAS,NV,89031,36.259739,-115.15364,71,2200,2200
F,North Las Vegas Fire Station Number 55,1371021365,CM61-BEAD-NV-CLA-0997-1,5725 ALLEN LN,N LAS VEGAS,NV,89031,36.263806,-115.18948,71,2200,2200
C,North Las Vegas Municipal Court,1371076997,CM61-BEAD-NV-CLA-0967-0,2200 CONSTITUTION WAY,N LAS VEGAS,NV,89030,36.201672,-115.118509,71,2000,2000
H,North Las Vegas VA Medical Center,1371593424,CM61-BEAD-NV-CLA-0997-1,6900 N PECOS RD,N LAS VEGAS,NV,89086,36.285313,-115.090654,71,2200,2200
F,Nye County Planning & Building,1316449901,CM61-BEAD-NV-NYE-0860-1,1118 GLOBE MALLOW LN,TONOPAH,NV,89049,38.083857,-117.250482,50,1000,1000
P,OGDEN PINES APTS,1371444270,CM61-BEAD-NV-CLA-0967-0,1200 E OGDEN AVE,LAS VEGAS,NV,89101,36.167198,-115.131488,71,2000,2000
P,OVERTON FAMILY/SHADOW CREEK APTS.,1370940891,CM61-BEAD-NV-CLA-0736-0,350 W RYAN AVE,OVERTON,NV,89040,36.550401,-114.448494,50,1000,1000
P,OVERTON VLG/SHADOW CREEK II APTS.,1370940891,CM61-BEAD-NV-CLA-0736-0,350 W RYAN AVE,OVERTON,NV,89040,36.550401,-114.448494,50,1000,1000
C,Pahrump Courthouse and Sheriff's Office,1316474207,CM61-BEAD-NV-NYE-0867-0,1520 E BASIN AVE,PAHRUMP,NV,89060,36.220693,-115.986881,50,1000,1000
F,Pahrump Fire Station,1316466130,CM61-BEAD-NV-NYE-0867-0,3030 W BELL VISTA AVE,PAHRUMP,NV,89060,36.264086,-116.068647,50,1000,1000
F,Pahrump Medical Center,1316424768,CM61-BEAD-NV-NYE-0867-0,1541 E CALVADA BLVD,PAHRUMP,NV,89048,36.191627,-115.986566,50,1000,1000
F,Pahrump Valley Fire & Rescue Station 1,1316463604,CM61-BEAD-NV-NYE-0867-0,150 N HIGHWAY 160,PAHRUMP,NV,89060,36.222433,-115.996423,50,1000,1000
F,Pahrump Valley Fire & Rescue Station 3,1316479587,CM61-BEAD-NV-NYE-0867-0,3650 E KELLOGG RD,PAHRUMP,NV,89061,36.117586,-115.948378,50,1000,1000
F,Pahrump Valley Fire & Rescue Station 5,1316461281,CM61-BEAD-NV-NYE-0867-0,461 E HARRIS FARM RD,PAHRUMP,NV,89060,36.292907,-116.005908,50,1000,1000
P,PALM TERRACE SR VILLAGE,1316422777,CM61-BEAD-NV-NYE-0867-0,421 MARGARET ST,PAHRUMP,NV,89048,36.213538,-116.027494,50,1000,1000
P,PARK APTS SUPPORTIVE HOUSING,1370891130,CM61-BEAD-NV-CLA-0967-0,2312 BLEDSOE LN,LAS VEGAS,NV,89156,36.202328,-115.054757,71,2000,2000
P,PARKWAY VISTA SR.,1120233429,CM61-BEAD-NV-DOU-1031-0,1330 CRESTMORE DR,GARDNERVILLE,NV,89410,38.933379,-119.731596,50,2500,2500
P,PATRIOT PLACE,1371356874,CM61-BEAD-NV-CLA-0967-0,4245 S PECOS RD,LAS VEGAS,NV,89121,36.112843,-115.101741,71,2000,2000
F,Peavine Volunteer Fire Department,1351370949,CM61-BEAD-NV-WAS-0063-1,11005 LONGVIEW LN,RENO,NV,89506,39.621589,-119.919449,71,5000,5000
P,PEDREGAL HOUSE,1371539869,CM61-BEAD-NV-CLA-0967-0,2140 VEGAS DR,LAS VEGAS,NV,89106,36.189054,-115.171721,71,2000,2000
P,PINION APTS.,1297878355,CM61-BEAD-NV-ELK-0794-0,1170 COLT DR,ELKO,NV,89801,40.832676,-115.736786,50,2000,2000
C,Public Employees' Retirement System of Nevada,1371388442,CM61-BEAD-NV-CLA-0967-0,5740 S EASTERN AVE BLDG 2,LAS VEGAS,NV,89119,36.084877,-115.118157,71,2000,2000
P,QUAIL RUN AT RIVER'S EDGE,1297871838,CM61-BEAD-NV-ELK-0794-0,610 S 12TH ST,ELKO,NV,89801,40.833125,-115.746742,50,2000,2000
S,Rainbow Dreams Academy,1371414629,CM61-BEAD-NV-CLA-0967-0,950 W LAKE MEAD BLVD,LAS VEGAS,NV,89106,36.196059,-115.154424,71,2000,2000
P,RAY RAWSON VILLA,1371066992,CM61-BEAD-NV-CLA-0970-1,3420 LINDELL RD,LAS VEGAS,NV,89146,36.127535,-115.215965,40,2000,2000
P,REATA CONDOS,1371350421,CM61-BEAD-NV-CLA-0967-0,3133 N WALNUT RD,LAS VEGAS,NV,89115,36.216498,-115.091071,71,2000,2000
F,Reno Fire Department,1351359480,CM61-BEAD-NV-WAS-0919-0,4000 JOY LAKE RD,RENO,NV,89511,39.345649,-119.826649,71,5000,5000
P,RICHARDS CROSSING,1287893141,CM61-BEAD-NV-CAR-1011-1,430 JEANELL DR,CARSON CITY,NV,89703,39.180432,-119.769272,71,5000,5000
P,RIVER VALLEY APTS.,1103986659,CM61-BEAD-NV-LYO-0912-0,351 DAYTON VALLEY RD,DAYTON,NV,89403,39.241139,-119.572017,50,5000,5000
P,ROBERT GORDON PLAZA,1371217805,CM61-BEAD-NV-CLA-0967-0,420 N 10TH ST,LAS VEGAS,NV,89101,36.172471,-115.131195,71,2000,2000
P,ROCHELLE PINES,1371083636,CM61-BEAD-NV-CLA-0967-0,4285 HILDEBRAND LN,LAS VEGAS,NV,89121,36.112303,-115.108133,71,2000,2000
P,ROME PINES,1370883851,CM61-BEAD-NV-CLA-0997-1,140 E ROME BLVD,N LAS VEGAS,NV,89084,36.28078,-115.138143,71,2200,2200
P,ROSE GARDENS RAD,1371274851,CM61-BEAD-NV-CLA-0967-0,1731 YALE ST,N LAS VEGAS,NV,89030,36.191418,-115.136241,71,2000,2000
F,Round Mountain Fire and Emergency Medical Services,1316453639,CM61-BEAD-NV-NYE-0851-0,53641 NEVADA HIGHWAY 376,ROUND MTN,NV,89045,38.786057,-117.177762,50,1000,1000
L,Round Mountain Library,1316454363,CM61-BEAD-NV-NYE-0849-0,73 HADLEY CIR,ROUND MOUNTAIN,NV,89045,38.694357,-117.158196,50,1000,1000
P,RUBY DUNCAN MANOR APTS,1371543353,CM61-BEAD-NV-CLA-0967-0,500 W OWENS AVE,LAS VEGAS,NV,89106,36.188671,-115.148297,71,2000,2000
P,RUBY HILLS APTS,1080051850,CM61-BEAD-NV-EUR-0838-0,100 S MONROE ST,EUREKA,NV,89316,39.51093,-115.961356,50,1000,1000
P,RULON EARL MOBILE HOME PARK -  I,1371325284,CM61-BEAD-NV-CLA-0967-0,3901 STEWART AVE,LAS VEGAS,NV,89110,36.165837,-115.092643,71,2000,2000
P,RULON EARL MOBILE HOME PARK - II,1371325284,CM61-BEAD-NV-CLA-0967-0,3901 STEWART AVE,LAS VEGAS,NV,89110,36.165837,-115.092643,71,2000,2000
F,Ruth Volunteer Fire and Emergency Medical Services,1050922046,CM61-BEAD-NV-WHI-0831-1,1 MAIN ST,RUTH,NV,89319,39.278642,-114.984245,50,1000,1000
F,Ruth Volunteer Fire Department,1050914849,CM61-BEAD-NV-WHI-0831-1,3 MAIN ST,RUTH,NV,89319,39.279134,-114.985182,50,1000,1000
P,SAGE WEST VILLAGE,1297880819,CM61-BEAD-NV-ELK-0794-0,930 W SAGE ST,ELKO,NV,89801,40.832735,-115.779649,50,2000,2000
P,SANDIA MANOR D,1103991455,CM61-BEAD-NV-LYO-1038-0,335 JILL CT,FERNLEY,NV,89408,39.611123,-119.221454,50,5000,5000
P,SANDY ROBINSON APTS,1371248592,CM61-BEAD-NV-CLA-0967-0,4200 E BONANZA RD,LAS VEGAS,NV,89110,36.174033,-115.084576,71,2000,2000
P,SARTINI PLAZA,1371002736,CM61-BEAD-NV-CLA-0970-1,900 BRUSH ST,LAS VEGAS,NV,89107,36.160946,-115.210992,40,2000,2000
P,SARTINI PLAZA ANNEX,1371002743,CM61-BEAD-NV-CLA-0970-1,5200 ALPINE PL,LAS VEGAS,NV,89107,36.160975,-115.212184,40,2000,2000
P,SCHAFFER HEIGHTS,1371206912,CM61-BEAD-NV-CLA-0967-0,2901 SCHAFFER CIR,LAS VEGAS,NV,89121,36.132307,-115.110738,71,2000,2000
G,Secretary of State,1287904859,CM61-BEAD-NV-CAR-1011-1,206 N CARSON ST,CARSON CITY,NV,89701,39.164956,-119.767362,71,5000,5000
F,Senior Citizen's Center,1050915083,CM61-BEAD-NV-WHI-0991-1,1000 CAMPTON ST,ELY,NV,89301,39.248342,-114.887265,50,1000,1000
P,SHANNON WEST HOMELESS YOUTH CENTER,1370965175,CM61-BEAD-NV-CLA-0967-0,1660 E FLAMINGO RD,LAS VEGAS,NV,89119,36.115875,-115.131156,71,2000,2000
P,SHELBOURNE SUPPORTIVE HOUSING,1371074291,CM61-BEAD-NV-CLA-0969-1,1235 E SHELBOURNE AVE,LAS VEGAS,NV,89123,36.038703,-115.135231,71,2000,2000
P,SHERMAN GARDENS,1370985891,CM61-BEAD-NV-CLA-0967-0,1701 J ST,LAS VEGAS,NV,89106,36.190784,-115.155361,71,2000,2000
P,SHERMAN GARDENS ANNEX,1371143487,CM61-BEAD-NV-CLA-0967-0,911 DOOLITTLE AVE,LAS VEGAS,NV,89106,36.191824,-115.153364,71,2000,2000
F,Sierra Fire Protection District Station 381 - Galena,1351342131,CM61-BEAD-NV-WAS-0919-0,16133 MOUNTAIN RANCH RD,RENO,NV,89511,39.389882,-119.810004,71,5000,5000
P,SIERRA PINES,1370934892,CM61-BEAD-NV-CLA-0967-0,3190 S MOJAVE RD,LAS VEGAS,NV,89121,36.131095,-115.106362,71,2000,2000
P,SIERRA RUN APTS.,1103996819,CM61-BEAD-NV-LYO-1038-0,237 MEADOW CIR,FERNLEY,NV,89408,39.603244,-119.238771,50,5000,5000
P,SIERRA RUN II,1103996819,CM61-BEAD-NV-LYO-1038-0,237 MEADOW CIR,FERNLEY,NV,89408,39.603244,-119.238771,50,5000,5000
F,Silver Lake Volunteer Fire Station,1351375710,CM61-BEAD-NV-WAS-0923-1,11525 RED ROCK RD,RENO,NV,89508,39.671873,-119.922951,50,10000,10000
P,SILVER SKY ASSISTED LIVING,1371340901,CM61-BEAD-NV-CLA-0970-1,8220 SILVER SKY DR,LAS VEGAS,NV,89145,36.176447,-115.272742,40,2000,2000
P,SILVER SKY AT DEER SPRINGS,1370925424,CM61-BEAD-NV-CLA-0997-1,4837 W DEER SPRINGS WAY,LAS VEGAS,NV,89131,36.282404,-115.206875,71,2200,2200
P,SILVERCREST APTS,1371116558,CM61-BEAD-NV-CLA-0967-0,2801 EQUADOR AVE,N LAS VEGAS,NV,89030,36.218831,-115.109369,71,2000,2000
P,SIMMONS MANOR,1371302987,CM61-BEAD-NV-CLA-0967-0,5385 AUSTIN JOHN CT BLDG 2,LAS VEGAS,NV,89122,36.116502,-115.056732,71,2000,2000
P,SKY VIEW PINES APTS,1370974085,CM61-BEAD-NV-CLA-0967-0,15 W OWENS AVE,N LAS VEGAS,NV,89030,36.187681,-115.137373,71,2000,2000
F,Smoky Valley Fire Services,1316453707,CM61-BEAD-NV-NYE-0849-0,103 SMOKY BLVD,ROUND MTN,NV,89045,38.693848,-117.165463,50,1000,1000
P,SOUTHGATE APTS.,1287886161,CM61-BEAD-NV-CAR-1011-1,2100 CALIFORNIA ST,CARSON CITY,NV,89701,39.14848,-119.766057,71,5000,5000
P,SOUTHGATE APTS. II,1287886161,CM61-BEAD-NV-CAR-1011-1,2100 CALIFORNIA ST,CARSON CITY,NV,89701,39.14848,-119.766057,71,5000,5000
P,SPRING MOUNTAIN APTS.,1316424771,CM61-BEAD-NV-NYE-0867-0,1441 E CALVADA BLVD,PAHRUMP,NV,89048,36.191232,-115.988081,50,1000,1000
P,ST. VINCENT H.E.L.P I (B),1371290855,CM61-BEAD-NV-CLA-0967-0,1501 LAS VEGAS BLVD N,LAS VEGAS,NV,89101,36.187033,-115.135314,71,2000,2000
P,ST. VINCENT H.E.L.P. I,1371290855,CM61-BEAD-NV-CLA-0967-0,1501 LAS VEGAS BLVD N,LAS VEGAS,NV,89101,36.187033,-115.135314,71,2000,2000
F,Station #66,1371589646,CM61-BEAD-NV-CLA-0969-1,10139 BOUNDARY POINT ST,LAS VEGAS,NV,89178,36.00463,-115.263892,71,2000,2000
P,STEAD MANOR,1351347842,CM61-BEAD-NV-WAS-0063-1,5062 COCOA AVE,RENO,NV,89506,39.656878,-119.875329,71,5000,5000
P,STELLA FLEMING TOWERS,1370976714,CM61-BEAD-NV-CLA-0970-1,400 BRUSH ST,LAS VEGAS,NV,89107,36.167772,-115.209742,40,2000,2000
P,STEWART PINES APTS. II,1371352179,CM61-BEAD-NV-CLA-0967-0,1391 STEWART AVE,LAS VEGAS,NV,89101,36.167557,-115.129198,71,2000,2000
P,STEWART PINES III SR APTS,1371444271,CM61-BEAD-NV-CLA-0967-0,233 N 13TH ST,LAS VEGAS,NV,89101,36.167387,-115.130684,71,2000,2000
P,STEWART PINES SR LIVING,1371352183,CM61-BEAD-NV-CLA-0967-0,1351 STEWART AVE,LAS VEGAS,NV,89101,36.168524,-115.128773,71,2000,2000
C,Sun Valley Senior Center,1351328495,CM61-BEAD-NV-WAS-0093-0,115 W 6TH AVE,SUN VALLEY,NV,89433,39.597274,-119.781778,50,5000,5000
P,SUNRISE APTS.,1297878411,CM61-BEAD-NV-ELK-0794-0,950 METZLER RD,ELKO,NV,89801,40.833066,-115.740834,50,2000,2000
F,The Harbor - Juvenile Assessment Center,1371358615,CM61-BEAD-NV-CLA-0997-1,3001 N MARTIN L KING BLVD,N LAS VEGAS,NV,89032,36.214359,-115.161576,71,2200,2200
G,The Paul Laxalt State Building,1287896783,CM61-BEAD-NV-CAR-1011-1,401 N CARSON ST,CARSON CITY,NV,89701,39.166184,-119.766536,71,5000,5000
C,"Tonopah Courthouse, Nye County Fire Department",1316449902,CM61-BEAD-NV-NYE-0860-1,101 RADAR RD,TONOPAH,NV,89049,38.084727,-117.251422,50,1000,1000
P,TONOPAH LAMB SENIOR APTS,1371270254,CM61-BEAD-NV-CLA-0967-0,4250 E TONOPAH AVE,LAS VEGAS,NV,89115,36.192469,-115.080702,71,2000,2000
P,TROPICAL PINES SR LIVING,1371242126,CM61-BEAD-NV-CLA-0967-0,5030 JEFFREYS ST,LAS VEGAS,NV,89119,36.098003,-115.120918,71,2000,2000
F,Truckee Meadows Fire & Rescue Station 33,1351310026,CM61-BEAD-NV-WAS-0091-0,470 FOOTHILL RD,RENO,NV,89511,39.435721,-119.772427,71,5000,5000
F,Truckee Meadows Fire & Rescue Station 44,1351311656,CM61-BEAD-NV-WAS-0096-1,3405 WHITE LAKE PKWY,RENO,NV,89508,39.675201,-119.973209,71,5000,5000
F,Truckee Meadows Fire & Rescue Station 46,1351338151,CM61-BEAD-NV-WAS-0093-0,500 ROCKWELL BLVD,SPARKS,NV,89441,39.636987,-119.708945,50,5000,5000
F,"Truckee Meadows Fire & Rescue, Sun Valley Fire Station 45",1351205351,CM61-BEAD-NV-WAS-0093-0,5841 SUN VALLEY BLVD,SUN VALLEY,NV,89433,39.605094,-119.781247,50,5000,5000
F,"Truckee Meadows Fire Department Station 18, Cold Springs",1351326145,CM61-BEAD-NV-WAS-0096-1,3680 DIAMOND PEAK DR,RENO,NV,89508,39.677874,-119.980274,71,5000,5000
G,United States Post Office,1316449479,CM61-BEAD-NV-NYE-0860-1,115 S MAIN ST US HIGHWAY 95,TONOPAH,NV,89049,38.067589,-117.231017,50,1000,1000
P,VALLEY SPRINGS,1371270254,CM61-BEAD-NV-CLA-0967-0,4250 E TONOPAH AVE,LAS VEGAS,NV,89115,36.192469,-115.080702,71,2000,2000
P,VERA JOHNSON PLAZA A,1371242126,CM61-BEAD-NV-CLA-0967-0,5030 JEFFREYS ST,LAS VEGAS,NV,89119,36.098003,-115.120918,71,2000,2000
P,VERA JOHNSON PLAZA B,1371426793,CM61-BEAD-NV-CLA-0967-0,517 N LAMB BLVD,LAS VEGAS,NV,89110,36.17114,-115.0809,71,2000,2000
P,VILLA CAPRI,1370985908,CM61-BEAD-NV-CLA-0967-0,1801 J ST,LAS VEGAS,NV,89106,36.191394,-115.155767,71,2000,2000
F,Volunteer Fire Department,1120244248,CM61-BEAD-NV-DOU-0905-0,1450 STEPHANIE WAY,MINDEN,NV,89423,39.041601,-119.727921,50,2500,2500
F,Volunteer Fire Department,1297897547,CM61-BEAD-NV-ELK-0820-0,588 LAMOILLE RD,LAMOILLE,NV,89828,40.729164,-115.475905,50,2000,2000
C,Wadsworth NV Food Distribution Building,1393900334,CM61-BEAD-NV-WAS-0741-2,714 Railroad Cir,Wadsworth,NV,89442,39.638134,-119.289951,50,2500,2500
C,Wadsworth NV PUB,1393900409,CM61-BEAD-NV-WAS-0741-2,4 Brady St,Wadsworth,NV,89442,39.641198,-119.292465,50,2500,2500
C,Wadsworth NV Women's Shelter,1393900333,CM61-BEAD-NV-WAS-0741-2,367 Pyramid St Bldg 2,Wadsworth,NV,89442,39.637974,-119.290171,50,2500,2500
C,Wadsworth Public Housing,1351290087,CM61-BEAD-NV-WAS-0741-2,2240 Main St,Wadsworth,NV,89442,39.631782,-119.287022,50,2500,2500
C,Wadsworth Public Housing,1351313038,CM61-BEAD-NV-WAS-0741-2,54 Railroad Ave,Wadsworth,NV,89442,39.633722,-119.284623,50,2500,2500
C,Wadsworth Public Housing,1393900325,CM61-BEAD-NV-WAS-0741-2,345 Pyramid St,Wadsworth,NV,89442,39.637371,-119.290064,50,2500,2500
C,Wadsworth Public Housing,1393900326,CM61-BEAD-NV-WAS-0741-2,327 Pyramid St,Wadsworth,NV,89442,39.637377,-119.290386,50,2500,2500
C,Wadsworth Public Housing,1393900327,CM61-BEAD-NV-WAS-0741-2,337 Pyramid St,Wadsworth,NV,89442,39.637467,-119.290293,50,2500,2500
C,Wadsworth Public Housing,1393900328,CM61-BEAD-NV-WAS-0741-2,367 Pyramid St,Wadsworth,NV,89442,39.637669,-119.289903,50,2500,2500
C,Wadsworth Public Housing,1393900329,CM61-BEAD-NV-WAS-0741-2,381 Pyramid St,Wadsworth,NV,89442,39.637738,-119.289749,50,2500,2500
C,Wadsworth Public Housing,1393900330,CM61-BEAD-NV-WAS-0741-2,373 Pyramid St,Wadsworth,NV,89442,39.637822,-119.289951,50,2500,2500
C,Wadsworth Public Housing,1393900331,CM61-BEAD-NV-WAS-0741-2,357 Pyramid St,Wadsworth,NV,89442,39.637746,-119.290166,50,2500,2500
C,Wadsworth Public Housing,1393900332,CM61-BEAD-NV-WAS-0741-2,389 Pyramid St,Wadsworth,NV,89442,39.637999,-119.289802,50,2500,2500
P,WARDELLE ST. TOWNHOUSES,1371357641,CM61-BEAD-NV-CLA-0967-0,2842 E BONANZA RD,LAS VEGAS,NV,89101,36.174068,-115.110689,71,2000,2000
F,Wells Clerk Office,1297919334,CM61-BEAD-NV-ELK-0798-0,1279 CLOVER AVE,WELLS,NV,89835,41.108405,-114.967241,50,2000,2000
P,WELLS GOLDEN VILLAGE/SENIOR HOUSING,1394146894,CM61-BEAD-NV-ELK-0798-0,735 TOBAR ST,WELLS,NV,89835,41.100761,-114.968258,50,2000,2000
F,Wells Volunteer Fire Department,1297920882,CM61-BEAD-NV-ELK-0798-0,516 7TH ST,WELLS,NV,89835,41.111085,-114.962647,50,2000,2000
P,WEST OWENS,1371414617,CM61-BEAD-NV-CLA-0967-0,10 W OWENS AVE,N LAS VEGAS,NV,89030,36.188651,-115.138715,71,2000,2000
P,WESTCLIFF HEIGHTS,1371156521,CM61-BEAD-NV-CLA-0970-1,8208 DREAM STAR CT,LAS VEGAS,NV,89145,36.176789,-115.275443,40,2000,2000
P,WESTCLIFF PINES,1371156521,CM61-BEAD-NV-CLA-0970-1,8208 DREAM STAR CT,LAS VEGAS,NV,89145,36.176789,-115.275443,40,2000,2000
P,WESTCLIFF PINES II,1371156520,CM61-BEAD-NV-CLA-0970-1,8286 SILVER SKY DR,LAS VEGAS,NV,89145,36.176027,-115.27508,40,2000,2000
P,WESTCLIFF PINES III,1371156520,CM61-BEAD-NV-CLA-0970-1,8286 SILVER SKY DR,LAS VEGAS,NV,89145,36.176027,-115.27508,40,2000,2000
F,White Pine County Courthouse,1050922040,CM61-BEAD-NV-WHI-0991-1,1880 GREAT BASIN BLVD,ELY,NV,89301,39.241906,-114.867418,50,1000,1000
G,"White Pine County Library, UNR Extension",1050915383,CM61-BEAD-NV-WHI-0991-1,950 CAMPTON ST,ELY,NV,89301,39.247876,-114.888437,50,1000,1000
P,WINCHESTER SENIOR HOUSING,1297876705,CM61-BEAD-NV-ELK-0794-0,1806 WINCHESTER DR,ELKO,NV,89801,40.82966,-115.734124,50,2000,2000
P,WOODHAUS,1095970448,CM61-BEAD-NV-LAN-1000-1,455 ELQUIST DR,BATTLE MTN,NV,89820,40.644086,-116.945234,50,1000,1000
P,WOODLANDS APTS.,1394133021,CM61-BEAD-NV-ELK-0794-0,1040 CYPRESS ST BLDG 2,ELKO,NV,89801,40.835394,-115.782344,50,2000,2000
F,"Youth Center, Independance High School, Nevada Department Forestry Fire Station",1297874704,CM61-BEAD-NV-ELK-0794-0,101 YOUTH CENTER RD,ELKO,NV,89801,40.879464,-115.72893,50,2000,2000
